{"type": "FeatureCollection", "features": [ {"type": "Feature", "properties": {"norad_id": 43262, "name": "GAOFEN-1 04", "group": "resource", "lat": -10.495542405239112, "lon": 38.155685025992796, "alt_km": 644.5966328332097, "timestamp": "2025-12-04T19:33:59.288975+00:00", "meta": {"OBJECT_NAME": "GAOFEN-1 04", "OBJECT_ID": "2018-031D", "EPOCH": "2025-12-04T08:13:43.130784", "MEAN_MOTION": 14.7642363, "ECCENTRICITY": 0.00013223, "INCLINATION": 98.082, "RA_OF_ASC_NODE": 36.1746, "ARG_OF_PERICENTER": 61.9779, "MEAN_ANOMALY": 298.1564, "EPHEMERIS_TYPE": 0, "CLASSIFICATION_TYPE": "U", "NORAD_CAT_ID": 43262, "ELEMENT_SET_NO": 999, "REV_AT_EPOCH": 41393, "BSTAR": 0.00028956732, "MEAN_MOTION_DOT": 1.962e-05, "MEAN_MOTION_DDOT": 0}, "tle": {"line1": "1 43262U 18031D   25338.34286031  .00001962  00000+0  28957-3 0  9999", "line2": "2 43262  98.0820  36.1746 0001322  61.9779 298.1564 14.76423630413931"}}, "geometry": {"type": "Point", "coordinates": [38.155685025992796, -10.495542405239112]}}, {"type": "Feature", "properties": {"norad_id": 43437, "name": "SENTINEL-3B", "group": "resource", "lat": 47.55681671084065, "lon": -126.32966475509245, "alt_km": 797.4107974453627, "timestamp": "2025-12-04T19:33:59.288984+00:00", "meta": {"OBJECT_NAME": "SENTINEL-3B", "OBJECT_ID": "2018-039A", "EPOCH": "2025-12-04T03:48:12.929472", "MEAN_MOTION": 14.26737832, "ECCENTRICITY": 0.00014792, "INCLINATION": 98.6278, "RA_OF_ASC_NODE": 43.4663, "ARG_OF_PERICENTER": 111.1167, "MEAN_ANOMALY": 249.0172, "EPHEMERIS_TYPE": 0, "CLASSIFICATION_TYPE": "U", "NORAD_CAT_ID": 43437, "ELEMENT_SET_NO": 999, "REV_AT_EPOCH": 39631, "BSTAR": 0.00014970401, "MEAN_MOTION_DOT": 3.19e-06, "MEAN_MOTION_DDOT": 0}, "tle": {"line1": "1 43437U 18039A   25338.15848298  .00000319  00000+0  14970-3 0  9994", "line2": "2 43437  98.6278  43.4663 0001479 111.1167 249.0172 14.26737832396318"}}, "geometry": {"type": "Point", "coordinates": [-126.32966475509245, 47.55681671084065]}}, {"type": "Feature", "properties": {"norad_id": 43461, "name": "GAOFEN-5 01", "group": "resource", "lat": -60.70391708888529, "lon": 106.31612066679915, "alt_km": 699.6457900281866, "timestamp": "2025-12-04T19:33:59.288993+00:00", "meta": {"OBJECT_NAME": "GAOFEN-5 01", "OBJECT_ID": "2018-043A", "EPOCH": "2025-12-04T05:18:27.782496", "MEAN_MOTION": 14.60395165, "ECCENTRICITY": 0.00015166, "INCLINATION": 98.4314, "RA_OF_ASC_NODE": 301.0404, "ARG_OF_PERICENTER": 8.3662, "MEAN_ANOMALY": 351.7562, "EPHEMERIS_TYPE": 0, "CLASSIFICATION_TYPE": "U", "NORAD_CAT_ID": 43461, "ELEMENT_SET_NO": 999, "REV_AT_EPOCH": 40323, "BSTAR": 0.00021633509, "MEAN_MOTION_DOT": 9.98e-06, "MEAN_MOTION_DDOT": 0}, "tle": {"line1": "1 43461U 18043A   25338.22115489  .00000998  00000+0  21634-3 0  9991", "line2": "2 43461  98.4314 301.0404 0001516   8.3662 351.7562 14.60395165403230"}}, "geometry": {"type": "Point", "coordinates": [106.31612066679915, -60.70391708888529]}}, {"type": "Feature", "properties": {"norad_id": 43484, "name": "GAOFEN-6", "group": "resource", "lat": 41.789899827704055, "lon": -129.61060398363156, "alt_km": 630.974753368645, "timestamp": "2025-12-04T19:33:59.289002+00:00", "meta": {"OBJECT_NAME": "GAOFEN-6", "OBJECT_ID": "2018-048A", "EPOCH": "2025-12-04T07:33:41.425920", "MEAN_MOTION": 14.76540114, "ECCENTRICITY": 0.00133289, "INCLINATION": 97.8043, "RA_OF_ASC_NODE": 42.8647, "ARG_OF_PERICENTER": 88.5555, "MEAN_ANOMALY": 271.7182, "EPHEMERIS_TYPE": 0, "CLASSIFICATION_TYPE": "U", "NORAD_CAT_ID": 43484, "ELEMENT_SET_NO": 999, "REV_AT_EPOCH": 40463, "BSTAR": 0.00011571971, "MEAN_MOTION_DOT": 7.58e-06, "MEAN_MOTION_DDOT": 0}, "tle": {"line1": "1 43484U 18048A   25338.31506280  .00000758  00000+0  11572-3 0  9998", "line2": "2 43484  97.8043  42.8647 0013328  88.5555 271.7182 14.76540114404638"}}, "geometry": {"type": "Point", "coordinates": [-129.61060398363156, 41.789899827704055]}}, {"type": "Feature", "properties": {"norad_id": 43585, "name": "GAOFEN-11 01", "group": "resource", "lat": 38.98007096565531, "lon": 35.98148056970735, "alt_km": 415.03385384397825, "timestamp": "2025-12-04T19:33:59.289011+00:00", "meta": {"OBJECT_NAME": "GAOFEN-11 01", "OBJECT_ID": "2018-063A", "EPOCH": "2025-12-04T08:32:36.945024", "MEAN_MOTION": 15.48865725, "ECCENTRICITY": 0.00048679, "INCLINATION": 97.1576, "RA_OF_ASC_NODE": 41.3627, "ARG_OF_PERICENTER": 350.1231, "MEAN_ANOMALY": 9.9923, "EPHEMERIS_TYPE": 0, "CLASSIFICATION_TYPE": "U", "NORAD_CAT_ID": 43585, "ELEMENT_SET_NO": 999, "REV_AT_EPOCH": 41012, "BSTAR": 0.00054156955, "MEAN_MOTION_DOT": 0.00029155, "MEAN_MOTION_DDOT": 0}, "tle": {"line1": "1 43585U 18063A   25338.35598316  .00029155  00000+0  54157-3 0  9990", "line2": "2 43585  97.1576  41.3627 0004867 350.1231   9.9923 15.48865725410126"}}, "geometry": {"type": "Point", "coordinates": [35.98148056970735, 38.98007096565531]}}, {"type": "Feature", "properties": {"norad_id": 43613, "name": "ICESAT-2", "group": "resource", "lat": 10.50706790812527, "lon": -121.77439573815349, "alt_km": 482.81644747821247, "timestamp": "2025-12-04T19:33:59.289020+00:00", "meta": {"OBJECT_NAME": "ICESAT-2", "OBJECT_ID": "2018-070A", "EPOCH": "2025-12-04T06:56:55.370400", "MEAN_MOTION": 15.2826944, "ECCENTRICITY": 4.297e-05, "INCLINATION": 92.0056, "RA_OF_ASC_NODE": 238.4561, "ARG_OF_PERICENTER": 141.6999, "MEAN_ANOMALY": 218.4281, "EPHEMERIS_TYPE": 0, "CLASSIFICATION_TYPE": "U", "NORAD_CAT_ID": 43613, "ELEMENT_SET_NO": 999, "REV_AT_EPOCH": 40269, "BSTAR": 0.0010074451, "MEAN_MOTION_DOT": 0.00027792, "MEAN_MOTION_DDOT": 0}, "tle": {"line1": "1 43613U 18070A   25338.28952975  .00027792  00000+0  10074-2 0  9991", "line2": "2 43613  92.0056 238.4561 0000429 141.6999 218.4281 15.28269440402692"}}, "geometry": {"type": "Point", "coordinates": [-121.77439573815349, 10.50706790812527]}}, {"type": "Feature", "properties": {"norad_id": 43719, "name": "HYSIS", "group": "resource", "lat": 65.05497824564837, "lon": -120.54468540918633, "alt_km": 626.6342125706287, "timestamp": "2025-12-04T19:33:59.289028+00:00", "meta": {"OBJECT_NAME": "HYSIS", "OBJECT_ID": "2018-096A", "EPOCH": "2025-12-04T15:48:22.076640", "MEAN_MOTION": 14.78609198, "ECCENTRICITY": 0.0001615, "INCLINATION": 98.0108, "RA_OF_ASC_NODE": 41.6757, "ARG_OF_PERICENTER": 64.8201, "MEAN_ANOMALY": 295.3177, "EPHEMERIS_TYPE": 0, "CLASSIFICATION_TYPE": "U", "NORAD_CAT_ID": 43719, "ELEMENT_SET_NO": 999, "REV_AT_EPOCH": 37867, "BSTAR": 3.5541e-05, "MEAN_MOTION_DOT": 2.08e-06, "MEAN_MOTION_DDOT": 0}, "tle": {"line1": "1 43719U 18096A   25338.65858885  .00000208  00000+0  35541-4 0  9993", "line2": "2 43719  98.0108  41.6757 0001615  64.8201 295.3177 14.78609198378674"}}, "geometry": {"type": "Point", "coordinates": [-120.54468540918633, 65.05497824564837]}}, {"type": "Feature", "properties": {"norad_id": 43783, "name": "KAZSTSAT", "group": "resource", "lat": 58.687252398342466, "lon": -153.22792185135418, "alt_km": 565.6644093456198, "timestamp": "2025-12-04T19:33:59.289037+00:00", "meta": {"OBJECT_NAME": "KAZSTSAT", "OBJECT_ID": "2018-099AB", "EPOCH": "2025-12-04T01:24:44.238240", "MEAN_MOTION": 14.99307288, "ECCENTRICITY": 0.00064904, "INCLINATION": 97.4553, "RA_OF_ASC_NODE": 13.6171, "ARG_OF_PERICENTER": 2.5271, "MEAN_ANOMALY": 357.5985, "EPHEMERIS_TYPE": 0, "CLASSIFICATION_TYPE": "U", "NORAD_CAT_ID": 43783, "ELEMENT_SET_NO": 999, "REV_AT_EPOCH": 38206, "BSTAR": 0.00027331739, "MEAN_MOTION_DOT": 3.283e-05, "MEAN_MOTION_DDOT": 0}, "tle": {"line1": "1 43783U 18099AB  25338.05884535  .00003283  00000+0  27332-3 0  9996", "line2": "2 43783  97.4553  13.6171 0006490   2.5271 357.5985 14.99307288382067"}}, "geometry": {"type": "Point", "coordinates": [-153.22792185135418, 58.687252398342466]}}, {"type": "Feature", "properties": {"norad_id": 43831, "name": "SAUDISAT 5A", "group": "resource", "lat": 34.030096661729694, "lon": -135.8479935987629, "alt_km": 481.4640089718687, "timestamp": "2025-12-04T19:33:59.289048+00:00", "meta": {"OBJECT_NAME": "SAUDISAT 5A", "OBJECT_ID": "2018-102A", "EPOCH": "2025-12-04T07:54:41.937984", "MEAN_MOTION": 15.25494375, "ECCENTRICITY": 0.00117851, "INCLINATION": 97.337, "RA_OF_ASC_NODE": 38.6842, "ARG_OF_PERICENTER": 102.0395, "MEAN_ANOMALY": 258.2165, "EPHEMERIS_TYPE": 0, "CLASSIFICATION_TYPE": "U", "NORAD_CAT_ID": 43831, "ELEMENT_SET_NO": 999, "REV_AT_EPOCH": 38594, "BSTAR": 0.00056901189, "MEAN_MOTION_DOT": 0.00014381, "MEAN_MOTION_DDOT": 0}, "tle": {"line1": "1 43831U 18102A   25338.32965206  .00014381  00000+0  56901-3 0  9995", "line2": "2 43831  97.3370  38.6842 0011785 102.0395 258.2165 15.25494375385946"}}, "geometry": {"type": "Point", "coordinates": [-135.8479935987629, 34.030096661729694]}}, {"type": "Feature", "properties": {"norad_id": 43833, "name": "SAUDISAT 5B", "group": "resource", "lat": -7.799602381905266, "lon": -139.12794543160655, "alt_km": 491.4615722934341, "timestamp": "2025-12-04T19:33:59.289057+00:00", "meta": {"OBJECT_NAME": "SAUDISAT 5B", "OBJECT_ID": "2018-102C", "EPOCH": "2025-12-04T07:43:48.621792", "MEAN_MOTION": 15.25851781, "ECCENTRICITY": 0.00124995, "INCLINATION": 97.3466, "RA_OF_ASC_NODE": 41.4001, "ARG_OF_PERICENTER": 104.6378, "MEAN_ANOMALY": 255.6247, "EPHEMERIS_TYPE": 0, "CLASSIFICATION_TYPE": "U", "NORAD_CAT_ID": 43833, "ELEMENT_SET_NO": 999, "REV_AT_EPOCH": 38605, "BSTAR": 0.00054318554, "MEAN_MOTION_DOT": 0.00013876, "MEAN_MOTION_DDOT": 0}, "tle": {"line1": "1 43833U 18102C   25338.32209053  .00013876  00000+0  54319-3 0  9997", "line2": "2 43833  97.3466  41.4001 0012499 104.6378 255.6247 15.25851781386058"}}, "geometry": {"type": "Point", "coordinates": [-139.12794543160655, -7.799602381905266]}}]}